[{"OBJECT_NAME":"ONEWEB-0654","OBJECT_ID":"2023-029W","EPOCH":"2026-03-09T15:54:35.575200","MEAN_MOTION":13.14502537,"ECCENTRICITY":0.00014454,"INCLINATION":87.8979,"RA_OF_ASC_NODE":309.5678,"ARG_OF_PERICENTER":69.9099,"MEAN_ANOMALY":290.2187,"EPHEMERIS_TYPE":0,"CLASSIFICATION_TYPE":"U","NORAD_CAT_ID":55816,"ELEMENT_SET_NO":999,"REV_AT_EPOCH":14634,"BSTAR":0.00052138754,"MEAN_MOTION_DOT":2.06e-6,"MEAN_MOTION_DDOT":0},{"OBJECT_NAME":"ARIANE 5 R\/B","OBJECT_ID":"2011-022C","EPOCH":"2026-03-09T22:09:38.154528","MEAN_MOTION":4.38409985,"ECCENTRICITY":0.5854065,"INCLINATION":2.3709,"RA_OF_ASC_NODE":205.1862,"ARG_OF_PERICENTER":151.0669,"MEAN_ANOMALY":260.1952,"EPHEMERIS_TYPE":0,"CLASSIFICATION_TYPE":"U","NORAD_CAT_ID":37607,"ELEMENT_SET_NO":999,"REV_AT_EPOCH":17102,"BSTAR":0.001176298,"MEAN_MOTION_DOT":0.00163013,"MEAN_MOTION_DDOT":-1.57685e-7}]
